[{"OBJECT_NAME":"ONEWEB-0701","OBJECT_ID":"2024-188P","EPOCH":"2025-10-26T21:14:45.914496","MEAN_MOTION":13.1037146,"ECCENTRICITY":0.00024228,"INCLINATION":87.8776,"RA_OF_ASC_NODE":82.7676,"ARG_OF_PERICENTER":98.5023,"MEAN_ANOMALY":261.6379,"EPHEMERIS_TYPE":0,"CLASSIFICATION_TYPE":"U","NORAD_CAT_ID":61607,"ELEMENT_SET_NO":999,"REV_AT_EPOCH":5275,"BSTAR":-0.001735285,"MEAN_MOTION_DOT":-5.93e-6,"MEAN_MOTION_DDOT":0},{"OBJECT_NAME":"ONEWEB-0702","OBJECT_ID":"2024-188Q","EPOCH":"2025-10-26T18:43:37.899264","MEAN_MOTION":13.11419849,"ECCENTRICITY":0.00025627,"INCLINATION":87.8782,"RA_OF_ASC_NODE":67.4767,"ARG_OF_PERICENTER":93.0546,"MEAN_ANOMALY":267.0876,"EPHEMERIS_TYPE":0,"CLASSIFICATION_TYPE":"U","NORAD_CAT_ID":61608,"ELEMENT_SET_NO":999,"REV_AT_EPOCH":5389,"BSTAR":-0.0011486906,"MEAN_MOTION_DOT":-3.94e-6,"MEAN_MOTION_DDOT":0},{"OBJECT_NAME":"ONEWEB-0704","OBJECT_ID":"2024-188R","EPOCH":"2025-10-26T20:58:02.555616","MEAN_MOTION":13.10370274,"ECCENTRICITY":0.0002541,"INCLINATION":87.8788,"RA_OF_ASC_NODE":82.7285,"ARG_OF_PERICENTER":89.0809,"MEAN_ANOMALY":271.061,"EPHEMERIS_TYPE":0,"CLASSIFICATION_TYPE":"U","NORAD_CAT_ID":61609,"ELEMENT_SET_NO":999,"REV_AT_EPOCH":5273,"BSTAR":-0.00038509671,"MEAN_MOTION_DOT":-1.22e-6,"MEAN_MOTION_DDOT":0},{"OBJECT_NAME":"ONEWEB-0705","OBJECT_ID":"2024-188S","EPOCH":"2025-10-26T21:05:12.583104","MEAN_MOTION":13.1037155,"ECCENTRICITY":0.00023253,"INCLINATION":87.8772,"RA_OF_ASC_NODE":82.7555,"ARG_OF_PERICENTER":66.7825,"MEAN_ANOMALY":293.3547,"EPHEMERIS_TYPE":0,"CLASSIFICATION_TYPE":"U","NORAD_CAT_ID":61610,"ELEMENT_SET_NO":999,"REV_AT_EPOCH":4490,"BSTAR":-0.0010873427,"MEAN_MOTION_DOT":-3.67e-6,"MEAN_MOTION_DDOT":0},{"OBJECT_NAME":"ONEWEB-0706","OBJECT_ID":"2024-188T","EPOCH":"2025-10-26T22:33:39.970080","MEAN_MOTION":13.10369616,"ECCENTRICITY":0.0002133,"INCLINATION":87.8767,"RA_OF_ASC_NODE":82.7686,"ARG_OF_PERICENTER":83.49,"MEAN_ANOMALY":276.6471,"EPHEMERIS_TYPE":0,"CLASSIFICATION_TYPE":"U","NORAD_CAT_ID":61611,"ELEMENT_SET_NO":999,"REV_AT_EPOCH":5283,"BSTAR":0.0014708183,"MEAN_MOTION_DOT":5.26e-6,"MEAN_MOTION_DDOT":0},{"OBJECT_NAME":"ONEWEB-0707","OBJECT_ID":"2024-188U","EPOCH":"2025-10-26T22:43:13.167552","MEAN_MOTION":13.103688,"ECCENTRICITY":0.00021476,"INCLINATION":87.878,"RA_OF_ASC_NODE":82.7376,"ARG_OF_PERICENTER":87.8049,"MEAN_ANOMALY":272.3324,"EPHEMERIS_TYPE":0,"CLASSIFICATION_TYPE":"U","NORAD_CAT_ID":61612,"ELEMENT_SET_NO":999,"REV_AT_EPOCH":5277,"BSTAR":0.00030012086,"MEAN_MOTION_DOT":1.17e-6,"MEAN_MOTION_DDOT":0},{"OBJECT_NAME":"ONEWEB-0708","OBJECT_ID":"2024-188V","EPOCH":"2025-10-26T21:19:33.198816","MEAN_MOTION":13.10373601,"ECCENTRICITY":0.00015138,"INCLINATION":87.8772,"RA_OF_ASC_NODE":82.7903,"ARG_OF_PERICENTER":75.7483,"MEAN_ANOMALY":284.3813,"EPHEMERIS_TYPE":0,"CLASSIFICATION_TYPE":"U","NORAD_CAT_ID":61613,"ELEMENT_SET_NO":999,"REV_AT_EPOCH":5274,"BSTAR":0.00074885452,"MEAN_MOTION_DOT":2.74e-6,"MEAN_MOTION_DDOT":0}]
